[Satellite]
VERSION=1.1
NAME=STARLINK-1327
NICKNAME=STARLINK-1327
TLE1=1 45555U 20025AA  20141.58334491 -.00026926  00000-0 -28901-3 0  9998
TLE2=2 45555  52.9995 262.1335 0001063  84.1089 247.5789 15.62769618  1821
STATUS=0
